ONEWEB-0098             
1 45442U 20020U   25117.22501677 -.00000471  00000+0 -13639-2 0  9996
2 45442  87.8800 103.9743 0001742  91.4890 268.6438 13.11416294248120
ONEWEB-0055             
1 45443U 20020V   25116.90287164 -.00000380  00000+0 -11090-2 0  9991
2 45443  87.8798 104.0411 0001922  87.5980 272.5368 13.11413423248056
ONEWEB-0093             
1 45444U 20020W   25116.95472201  .00000551  00000+0  15176-2 0  9992
2 45444  87.8798 104.0141 0002303  78.6343 281.5043 13.11415649248125
ONEWEB-0029             
1 45445U 20020X   25116.89689694 -.00000132  00000+0 -40898-3 0  9999
2 45445  87.8797 104.0390 0002117  82.2879 277.8489 13.11433448248094
ONEWEB-0068             
1 45446U 20020Y   25117.48854803  .00000591  00000+0  16327-2 0  9998
2 45446  87.8800 103.9088 0001974  82.4858 277.6494 13.11417743248129
ONEWEB-0046             
1 45447U 20020Z   25116.94613736  .00000548  00000+0  15097-2 0  9992
2 45447  87.8802 104.0267 0002289  84.8446 275.2943 13.11420310248051
ONEWEB-0063             
1 45448U 20020AA  25116.89864055 -.00000161  00000+0 -49083-3 0  9995
2 45448  87.8798 104.0343 0002227  92.2097 267.9286 13.11416453248138
ONEWEB-0019             
1 45449U 20020AB  25116.94945188  .00000333  00000+0  90445-3 0  9996
2 45449  87.8804 104.0400 0001714  92.9358 267.1966 13.11417207247985
